$$SOE
2459580.500000000, A.D. 2022-Jan-01 00:00:00.0000, -4.670250319473968E+08, 5.666575647748993E+07, 1.191463474133440E+08,
2459587.500000000, A.D. 2022-Jan-08 00:00:00.0000, -4.694361074948505E+08, 4.720092059951356E+07, 1.192513137081026E+08,
2459594.500000000, A.D. 2022-Jan-15 00:00:00.0000, -4.716494974649871E+08, 3.771620333897717E+07, 1.193060473371506E+08,
2459601.500000000, A.D. 2022-Jan-22 00:00:00.0000, -4.736658782837473E+08, 2.821572787314801E+07, 1.193109328184949E+08,
2459608.500000000, A.D. 2022-Jan-29 00:00:00.0000, -4.754859888037885E+08, 1.870355949461804E+07, 1.192663672994101E+08,
2459615.500000000, A.D. 2022-Feb-05 00:00:00.0000, -4.771106300352439E+08, 9.183705148158953E+06, 1.191727600994542E+08,
2459622.500000000, A.D. 2022-Feb-12 00:00:00.0000, -4.785406627910470E+08, -3.398880351197869E+05, 1.190305319942886E+08,
2459629.500000000, A.D. 2022-Feb-19 00:00:00.0000, -4.797770045687659E+08, -9.863332841653660E+06, 1.188401145540850E+08,
2459636.500000000, A.D. 2022-Feb-26 00:00:00.0000, -4.808206269779123E+08, -1.938280144569914E+07, 1.186019495962993E+08,
2459643.500000000, A.D. 2022-Mar-05 00:00:00.0000, -4.816725535518534E+08, -2.889452486799480E+07, 1.183164886866591E+08,
2459650.500000000, A.D. 2022-Mar-12 00:00:00.0000, -4.823338577207994E+08, -3.839479249331367E+07, 1.179841926615506E+08,
2459657.500000000, A.D. 2022-Mar-19 00:00:00.0000, -4.828056608732468E+08, -4.787995162365263E+07, 1.176055311666223E+08,
2459664.500000000, A.D. 2022-Mar-26 00:00:00.0000, -4.830891304824479E+08, -5.734640707745676E+07, 1.171809822083933E+08,
2459671.500000000, A.D. 2022-Apr-02 00:00:00.0000, -4.831854782293203E+08, -6.679062089447714E+07, 1.167110317075622E+08,
2459678.500000000, A.D. 2022-Apr-09 00:00:00.0000, -4.830959578486926E+08, -7.620911214455225E+07, 1.161961730288811E+08,
2459685.500000000, A.D. 2022-Apr-16 00:00:00.0000, -4.828218623401268E+08, -8.559845618906462E+07, 1.156369065075399E+08,
2459692.500000000, A.D. 2022-Apr-23 00:00:00.0000, -4.823645218101037E+08, -9.495528231380446E+07, 1.150337391762071E+08,
2459699.500000000, A.D. 2022-Apr-30 00:00:00.0000, -4.817253038142147E+08, -1.042762719819434E+08, 1.143871846802128E+08,
2459706.500000000, A.D. 2022-May-07 00:00:00.0000, -4.809056131361266E+08, -1.135581596835671E+08, 1.136977629385384E+08,
2459713.500000000, A.D. 2022-May-14 00:00:00.0000, -4.799068896123771E+08, -1.227977333452121E+08, 1.129659996710131E+08,
2459720.500000000, A.D. 2022-May-21 00:00:00.0000, -4.787306060312611E+08, -1.319918335425956E+08, 1.121924260390868E+08,
2459727.500000000, A.D. 2022-May-28 00:00:00.0000, -4.773782665824006E+08, -1.411373524779750E+08, 1.113775783649995E+08,
2459734.500000000, A.D. 2022-Jun-04 00:00:00.0000, -4.758514055785312E+08, -1.502312330373892E+08, 1.105219978779674E+08,
2459741.500000000, A.D. 2022-Jun-11 00:00:00.0000, -4.741515863034929E+08, -1.592704679273986E+08, 1.096262304739335E+08,
2459748.500000000, A.D. 2022-Jun-18 00:00:00.0000, -4.722803999460666E+08, -1.682520988794984E+08, 1.086908264859604E+08,
2459755.500000000, A.D. 2022-Jun-25 00:00:00.0000, -4.702394645883853E+08, -1.771732159567548E+08, 1.077163404593544E+08,
2459762.500000000, A.D. 2022-Jul-02 00:00:00.0000, -4.680304241130436E+08, -1.860309570297221E+08, 1.067033309133850E+08,
2459769.500000000, A.D. 2022-Jul-09 00:00:00.0000, -4.656549466368158E+08, -1.948225072458865E+08, 1.056523600678341E+08,
2459776.500000000, A.D. 2022-Jul-16 00:00:00.0000, -4.631147225241957E+08, -2.035450974109486E+08, 1.045639936274783E+08,
2459783.500000000, A.D. 2022-Jul-23 00:00:00.0000, -4.604114641770699E+08, -2.121960012055779E+08, 1.034388008320563E+08,
2459790.500000000, A.D. 2022-Jul-30 00:00:00.0000, -4.575469075151204E+08, -2.207725345934411E+08, 1.022773544897816E+08,
2459797.500000000, A.D. 2022-Aug-06 00:00:00.0000, -4.545228115476749E+08, -2.292720567737541E+08, 1.010802307174155E+08,
2459804.500000000, A.D. 2022-Aug-13 00:00:00.0000, -4.513409568588148E+08, -2.376919699242604E+08, 9.984800868734939E+07,
2459811.500000000, A.D. 2022-Aug-20 00:00:00.0000, -4.480031445728588E+08, -2.460297182385753E+08, 9.858127048405594E+07,
2459818.500000000, A.D. 2022-Aug-27 00:00:00.0000, -4.445111957302015E+08, -2.542827869857005E+08, 9.728060100396036E+07,
2459825.500000000, A.D. 2022-Sep-03 00:00:00.0000, -4.408669508243908E+08, -2.624487017036239E+08, 9.594658786684602E+07,
2459832.500000000, A.D. 2022-Sep-10 00:00:00.0000, -4.370722694094257E+08, -2.705250275041586E+08, 9.457982133241010E+07,
2459839.500000000, A.D. 2022-Sep-17 00:00:00.0000, -4.331290297468900E+08, -2.785093684915693E+08, 9.318089421894254E+07,
2459846.500000000, A.D. 2022-Sep-24 00:00:00.0000, -4.290391284314630E+08, -2.863993673465961E+08, 9.175040181413129E+07,
2459853.500000000, A.D. 2022-Oct-01 00:00:00.0000, -4.248044797538388E+08, -2.941927050988302E+08, 9.028894175378267E+07,
2459860.500000000, A.D. 2022-Oct-08 00:00:00.0000, -4.204270143928270E+08, -3.018871005658213E+08, 8.879711387330103E+07,
2459867.500000000, A.D. 2022-Oct-15 00:00:00.0000, -4.159086783673028E+08, -3.094803082598176E+08, 8.727552021477252E+07,
2459874.500000000, A.D. 2022-Oct-22 00:00:00.0000, -4.112514344281350E+08, -3.169701164461411E+08, 8.572476525138876E+07,
2459881.500000000, A.D. 2022-Oct-29 00:00:00.0000, -4.064572633912234E+08, -3.243543479471697E+08, 8.414545588751820E+07,
2459888.500000000, A.D. 2022-Nov-05 00:00:00.0000, -4.015281633114177E+08, -3.316308609508237E+08, 8.253820126529038E+07,
2459895.500000000, A.D. 2022-Nov-12 00:00:00.0000, -3.964661484603016E+08, -3.387975485559419E+08, 8.090361266069952E+07,
2459902.500000000, A.D. 2022-Nov-19 00:00:00.0000, -3.912732488249930E+08, -3.458523380090048E+08, 7.924230345650488E+07,
2459909.500000000, A.D. 2022-Nov-26 00:00:00.0000, -3.859515098642566E+08, -3.527931900308509E+08, 7.755488913502732E+07,
2459916.500000000, A.D. 2022-Dec-03 00:00:00.0000, -3.805029923554772E+08, -3.596180982464568E+08, 7.584198727463557E+07,
2459923.500000000, A.D. 2022-Dec-10 00:00:00.0000, -3.749297722871346E+08, -3.663250887001289E+08, 7.410421754735225E+07,
2459930.500000000, A.D. 2022-Dec-17 00:00:00.0000, -3.692339407721475E+08, -3.729122194814817E+08, 7.234220171325785E+07,
2459937.500000000, A.D. 2022-Dec-24 00:00:00.0000, -3.634176038723974E+08, -3.793775805280442E+08, 7.055656359613630E+07,
2459944.500000000, A.D. 2022-Dec-31 00:00:00.0000, -3.574828819761701E+08, -3.857192934968711E+08, 6.874792901613066E+07,
2459951.500000000, A.D. 2023-Jan-07 00:00:00.0000, -3.514319086049255E+08, -3.919355107425753E+08, 6.691692574654604E+07,
2459958.500000000, A.D. 2023-Jan-14 00:00:00.0000, -3.452668306151763E+08, -3.980244129047179E+08, 6.506418371551125E+07,
2459965.500000000, A.D. 2023-Jan-21 00:00:00.0000, -3.389898104388824E+08, -4.039842082774715E+08, 6.319033525209749E+07,
2459972.500000000, A.D. 2023-Jan-28 00:00:00.0000, -3.326030266938182E+08, -4.098131341580631E+08, 6.129601502446191E+07,
2459979.500000000, A.D. 2023-Feb-04 00:00:00.0000, -3.261086733723567E+08, -4.155094571467217E+08, 5.938185993662909E+07,
2459986.500000000, A.D. 2023-Feb-11 00:00:00.0000, -3.195089594033144E+08, -4.210714725914353E+08, 5.744850913266504E+07,
2459993.500000000, A.D. 2023-Feb-18 00:00:00.0000, -3.128061086490771E+08, -4.264975040003631E+08, 5.549660404660092E+07,
2460000.500000000, A.D. 2023-Feb-25 00:00:00.0000, -3.060023600740992E+08, -4.317859025837047E+08, 5.352678846066462E+07,
2460007.500000000, A.D. 2023-Mar-04 00:00:00.0000, -2.990999679816548E+08, -4.369350469065257E+08, 5.153970856397675E+07,
2460014.500000000, A.D. 2023-Mar-11 00:00:00.0000, -2.921012022895501E+08, -4.419433426523950E+08, 4.953601300921993E+07,
2460021.500000000, A.D. 2023-Mar-18 00:00:00.0000, -2.850083487971796E+08, -4.468092225475550E+08, 4.751635295904566E+07,
2460028.500000000, A.D. 2023-Mar-25 00:00:00.0000, -2.778237092400539E+08, -4.515311464929636E+08, 4.548138209983036E+07,
2460035.500000000, A.D. 2023-Apr-01 00:00:00.0000, -2.705496007067178E+08, -4.561076015108837E+08, 4.343175661609079E+07,
2460042.500000000, A.D. 2023-Apr-08 00:00:00.0000, -2.631883550328151E+08, -4.605371002809225E+08, 4.136813528215474E+07,
2460049.500000000, A.D. 2023-Apr-15 00:00:00.0000, -2.557423205083518E+08, -4.648181793714518E+08, 3.929117979498792E+07,
2460056.500000000, A.D. 2023-Apr-22 00:00:00.0000, -2.482138640879905E+08, -4.689494002188396E+08, 3.720155493273774E+07,
2460063.500000000, A.D. 2023-Apr-29 00:00:00.0000, -2.406053713690980E+08, -4.729293506027405E+08, 3.509992847223353E+07,
2460070.500000000, A.D. 2023-May-06 00:00:00.0000, -2.329192460978432E+08, -4.767566448367931E+08, 3.298697117237717E+07,
2460077.500000000, A.D. 2023-May-13 00:00:00.0000, -2.251579101798643E+08, -4.804299235681276E+08, 3.086335683972433E+07,
2460084.500000000, A.D. 2023-May-20 00:00:00.0000, -2.173238039607663E+08, -4.839478536765628E+08, 2.872976241423526E+07,
2460091.500000000, A.D. 2023-May-27 00:00:00.0000, -2.094193865821761E+08, -4.873091283029462E+08, 2.658686805457178E+07,
2460098.500000000, A.D. 2023-Jun-03 00:00:00.0000, -2.014471363549850E+08, -4.905124669810395E+08, 2.443535721932253E+07,
2460105.500000000, A.D. 2023-Jun-10 00:00:00.0000, -1.934095511254235E+08, -4.935566158873577E+08, 2.227591674044231E+07,
2460112.500000000, A.D. 2023-Jun-17 00:00:00.0000, -1.853091485445989E+08, -4.964403482697102E+08, 2.010923687546897E+07,
2460119.500000000, A.D. 2023-Jun-24 00:00:00.0000, -1.771484659213113E+08, -4.991624649992335E+08, 1.793601131337139E+07,
2460126.500000000, A.D. 2023-Jul-01 00:00:00.0000, -1.689300594047677E+08, -5.017217944178210E+08, 1.575693717815214E+07,
2460133.500000000, A.D. 2023-Jul-08 00:00:00.0000, -1.606565041705439E+08, -5.041171906583246E+08, 1.357271525057840E+07,
2460140.500000000, A.D. 2023-Jul-15 00:00:00.0000, -1.523303968850925E+08, -5.063475332667522E+08, 1.138405029351920E+07,
$$EOE